[{"OBJECT_NAME":"OBJECT A","OBJECT_ID":"2023-189A","EPOCH":"2026-03-09T22:59:06.381600","MEAN_MOTION":15.32403275,"ECCENTRICITY":0.00094831,"INCLINATION":97.4458,"RA_OF_ASC_NODE":86.5997,"ARG_OF_PERICENTER":249.5377,"MEAN_ANOMALY":110.4847,"EPHEMERIS_TYPE":0,"CLASSIFICATION_TYPE":"U","NORAD_CAT_ID":58502,"ELEMENT_SET_NO":999,"REV_AT_EPOCH":12601,"BSTAR":0.00019874471,"MEAN_MOTION_DOT":6.146e-5,"MEAN_MOTION_DDOT":0},{"OBJECT_NAME":"STARLINK-35938","OBJECT_ID":"2025-271AD","EPOCH":"2026-03-09T10:30:08.422272","MEAN_MOTION":15.30196229,"ECCENTRICITY":0.00015581,"INCLINATION":53.159,"RA_OF_ASC_NODE":141.4179,"ARG_OF_PERICENTER":131.009,"MEAN_ANOMALY":229.1046,"EPHEMERIS_TYPE":0,"CLASSIFICATION_TYPE":"U","NORAD_CAT_ID":66644,"ELEMENT_SET_NO":999,"REV_AT_EPOCH":1752,"BSTAR":0.00043422689,"MEAN_MOTION_DOT":0.00012522,"MEAN_MOTION_DDOT":0}]
